[{"OBJECT_NAME":"PLEIADES NEO 3","OBJECT_ID":"2021-034A","EPOCH":"2026-04-24T15:10:35.954976","MEAN_MOTION":14.81679396,"ECCENTRICITY":0.00013628,"INCLINATION":97.8934,"RA_OF_ASC_NODE":190.1682,"ARG_OF_PERICENTER":103.4295,"MEAN_ANOMALY":256.707,"EPHEMERIS_TYPE":0,"CLASSIFICATION_TYPE":"U","NORAD_CAT_ID":48268,"ELEMENT_SET_NO":999,"REV_AT_EPOCH":26972,"BSTAR":9.3708205e-5,"MEAN_MOTION_DOT":6.86e-6,"MEAN_MOTION_DDOT":0},{"OBJECT_NAME":"PLEIADES NEO 4","OBJECT_ID":"2021-073E","EPOCH":"2026-04-25T14:40:40.224288","MEAN_MOTION":14.81673986,"ECCENTRICITY":0.00012757,"INCLINATION":97.8923,"RA_OF_ASC_NODE":191.1293,"ARG_OF_PERICENTER":93.1075,"MEAN_ANOMALY":267.0284,"EPHEMERIS_TYPE":0,"CLASSIFICATION_TYPE":"U","NORAD_CAT_ID":49070,"ELEMENT_SET_NO":999,"REV_AT_EPOCH":25358,"BSTAR":-6.2253235e-5,"MEAN_MOTION_DOT":-5.42e-6,"MEAN_MOTION_DDOT":0},{"OBJECT_NAME":"LANDSAT 9","OBJECT_ID":"2021-088A","EPOCH":"2026-04-25T22:32:33.125856","MEAN_MOTION":14.57120345,"ECCENTRICITY":0.00012411,"INCLINATION":98.1873,"RA_OF_ASC_NODE":186.9435,"ARG_OF_PERICENTER":105.2488,"MEAN_ANOMALY":254.8848,"EPHEMERIS_TYPE":0,"CLASSIFICATION_TYPE":"U","NORAD_CAT_ID":49260,"ELEMENT_SET_NO":999,"REV_AT_EPOCH":24339,"BSTAR":8.506794e-5,"MEAN_MOTION_DOT":3.38e-6,"MEAN_MOTION_DDOT":0},{"OBJECT_NAME":"CSG-2","OBJECT_ID":"2022-008A","EPOCH":"2026-04-25T23:12:25.821792","MEAN_MOTION":14.82150844,"ECCENTRICITY":0.00014049,"INCLINATION":97.8891,"RA_OF_ASC_NODE":300.3212,"ARG_OF_PERICENTER":81.9026,"MEAN_ANOMALY":278.2346,"EPHEMERIS_TYPE":0,"CLASSIFICATION_TYPE":"U","NORAD_CAT_ID":51444,"ELEMENT_SET_NO":999,"REV_AT_EPOCH":22885,"BSTAR":3.4598865e-5,"MEAN_MOTION_DOT":2.23e-6,"MEAN_MOTION_DDOT":0},{"OBJECT_NAME":"GAOFEN-12 03","OBJECT_ID":"2022-069A","EPOCH":"2026-04-25T22:13:54.462720","MEAN_MOTION":14.79948399,"ECCENTRICITY":0.00012982,"INCLINATION":97.8339,"RA_OF_ASC_NODE":5.0993,"ARG_OF_PERICENTER":47.2506,"MEAN_ANOMALY":312.8815,"EPHEMERIS_TYPE":0,"CLASSIFICATION_TYPE":"U","NORAD_CAT_ID":52912,"ELEMENT_SET_NO":999,"REV_AT_EPOCH":20688,"BSTAR":0.00014541621,"MEAN_MOTION_DOT":1.048e-5,"MEAN_MOTION_DDOT":0},{"OBJECT_NAME":"SWOT","OBJECT_ID":"2022-173A","EPOCH":"2026-04-25T23:16:11.813088","MEAN_MOTION":14.00170516,"ECCENTRICITY":7.609e-5,"INCLINATION":77.6075,"RA_OF_ASC_NODE":105.7992,"ARG_OF_PERICENTER":154.4576,"MEAN_ANOMALY":205.6613,"EPHEMERIS_TYPE":0,"CLASSIFICATION_TYPE":"U","NORAD_CAT_ID":54754,"ELEMENT_SET_NO":999,"REV_AT_EPOCH":17184,"BSTAR":1.5932746e-5,"MEAN_MOTION_DOT":2.1e-7,"MEAN_MOTION_DDOT":0},{"OBJECT_NAME":"GAOFEN-12 04","OBJECT_ID":"2023-123A","EPOCH":"2026-04-25T21:10:04.037952","MEAN_MOTION":14.80124033,"ECCENTRICITY":0.00012754,"INCLINATION":97.9132,"RA_OF_ASC_NODE":34.6529,"ARG_OF_PERICENTER":89.0418,"MEAN_ANOMALY":271.094,"EPHEMERIS_TYPE":0,"CLASSIFICATION_TYPE":"U","NORAD_CAT_ID":57654,"ELEMENT_SET_NO":999,"REV_AT_EPOCH":14489,"BSTAR":0.00014692094,"MEAN_MOTION_DOT":1.063e-5,"MEAN_MOTION_DDOT":0},{"OBJECT_NAME":"PARS 1","OBJECT_ID":"2024-039Q","EPOCH":"2026-04-25T22:10:13.441152","MEAN_MOTION":15.44627974,"ECCENTRICITY":0.00077834,"INCLINATION":97.48,"RA_OF_ASC_NODE":95.2518,"ARG_OF_PERICENTER":312.9984,"MEAN_ANOMALY":47.0611,"EPHEMERIS_TYPE":0,"CLASSIFICATION_TYPE":"U","NORAD_CAT_ID":59065,"ELEMENT_SET_NO":999,"REV_AT_EPOCH":12057,"BSTAR":0.00027856901,"MEAN_MOTION_DOT":0.00012896,"MEAN_MOTION_DDOT":0},{"OBJECT_NAME":"RESURS-P 4","OBJECT_ID":"2024-061A","EPOCH":"2026-04-25T22:39:05.094144","MEAN_MOTION":15.31818285,"ECCENTRICITY":0.00026357,"INCLINATION":97.2714,"RA_OF_ASC_NODE":64.7777,"ARG_OF_PERICENTER":61.0747,"MEAN_ANOMALY":299.0759,"EPHEMERIS_TYPE":0,"CLASSIFICATION_TYPE":"U","NORAD_CAT_ID":59371,"ELEMENT_SET_NO":999,"REV_AT_EPOCH":11576,"BSTAR":0.0001123949,"MEAN_MOTION_DOT":3.377e-5,"MEAN_MOTION_DDOT":0},{"OBJECT_NAME":"LEGION 1","OBJECT_ID":"2024-081A","EPOCH":"2026-04-25T21:49:37.152192","MEAN_MOTION":15.16753703,"ECCENTRICITY":0.00097524,"INCLINATION":97.5023,"RA_OF_ASC_NODE":194.319,"ARG_OF_PERICENTER":192.437,"MEAN_ANOMALY":167.6624,"EPHEMERIS_TYPE":0,"CLASSIFICATION_TYPE":"U","NORAD_CAT_ID":59625,"ELEMENT_SET_NO":999,"REV_AT_EPOCH":10961,"BSTAR":0.00025514925,"MEAN_MOTION_DOT":4.944e-5,"MEAN_MOTION_DDOT":0},{"OBJECT_NAME":"LEGION 2","OBJECT_ID":"2024-081B","EPOCH":"2026-04-25T22:38:02.369472","MEAN_MOTION":15.16985004,"ECCENTRICITY":0.00112848,"INCLINATION":97.5023,"RA_OF_ASC_NODE":194.4412,"ARG_OF_PERICENTER":165.8231,"MEAN_ANOMALY":194.3321,"EPHEMERIS_TYPE":0,"CLASSIFICATION_TYPE":"U","NORAD_CAT_ID":59626,"ELEMENT_SET_NO":999,"REV_AT_EPOCH":10962,"BSTAR":0.00024733124,"MEAN_MOTION_DOT":4.825e-5,"MEAN_MOTION_DDOT":0},{"OBJECT_NAME":"ALOS-4 (DAICHI-4)","OBJECT_ID":"2024-123A","EPOCH":"2026-04-25T21:04:44.719104","MEAN_MOTION":14.79465235,"ECCENTRICITY":0.00016625,"INCLINATION":97.9206,"RA_OF_ASC_NODE":213.7937,"ARG_OF_PERICENTER":100.8547,"MEAN_ANOMALY":259.2852,"EPHEMERIS_TYPE":0,"CLASSIFICATION_TYPE":"U","NORAD_CAT_ID":60182,"ELEMENT_SET_NO":999,"REV_AT_EPOCH":9814,"BSTAR":8.9152337e-5,"MEAN_MOTION_DOT":6.14e-6,"MEAN_MOTION_DDOT":0},{"OBJECT_NAME":"LEGION 3","OBJECT_ID":"2024-146A","EPOCH":"2026-04-25T22:29:11.079456","MEAN_MOTION":15.15639488,"ECCENTRICITY":0.00086954,"INCLINATION":45.0019,"RA_OF_ASC_NODE":310.6973,"ARG_OF_PERICENTER":227.5452,"MEAN_ANOMALY":132.4692,"EPHEMERIS_TYPE":0,"CLASSIFICATION_TYPE":"U","NORAD_CAT_ID":60452,"ELEMENT_SET_NO":999,"REV_AT_EPOCH":9409,"BSTAR":0.00028466731,"MEAN_MOTION_DOT":5.248e-5,"MEAN_MOTION_DDOT":0},{"OBJECT_NAME":"LEGION 4","OBJECT_ID":"2024-146B","EPOCH":"2026-04-25T20:52:39.479232","MEAN_MOTION":15.14842861,"ECCENTRICITY":0.00106498,"INCLINATION":45.0023,"RA_OF_ASC_NODE":42.911,"ARG_OF_PERICENTER":20.6648,"MEAN_ANOMALY":339.4659,"EPHEMERIS_TYPE":0,"CLASSIFICATION_TYPE":"U","NORAD_CAT_ID":60453,"ELEMENT_SET_NO":999,"REV_AT_EPOCH":9293,"BSTAR":0.00040565677,"MEAN_MOTION_DOT":7.422e-5,"MEAN_MOTION_DDOT":0},{"OBJECT_NAME":"SENTINEL-2C","OBJECT_ID":"2024-157A","EPOCH":"2026-04-25T22:26:06.291456","MEAN_MOTION":14.30816335,"ECCENTRICITY":0.00014782,"INCLINATION":98.5633,"RA_OF_ASC_NODE":191.4613,"ARG_OF_PERICENTER":103.0284,"MEAN_ANOMALY":257.1064,"EPHEMERIS_TYPE":0,"CLASSIFICATION_TYPE":"U","NORAD_CAT_ID":60989,"ELEMENT_SET_NO":999,"REV_AT_EPOCH":8551,"BSTAR":5.7667235e-5,"MEAN_MOTION_DOT":1.08e-6,"MEAN_MOTION_DDOT":0},{"OBJECT_NAME":"IONOSFERA-M 1","OBJECT_ID":"2024-199A","EPOCH":"2026-04-25T20:54:24.549408","MEAN_MOTION":14.22744254,"ECCENTRICITY":5.068e-5,"INCLINATION":98.7245,"RA_OF_ASC_NODE":349.5771,"ARG_OF_PERICENTER":19.1151,"MEAN_ANOMALY":341.0046,"EPHEMERIS_TYPE":0,"CLASSIFICATION_TYPE":"U","NORAD_CAT_ID":61735,"ELEMENT_SET_NO":999,"REV_AT_EPOCH":12026,"BSTAR":4.1293477e-5,"MEAN_MOTION_DOT":4.8e-7,"MEAN_MOTION_DDOT":0},{"OBJECT_NAME":"IONOSFERA-M 2","OBJECT_ID":"2024-199B","EPOCH":"2026-04-25T21:43:57.949248","MEAN_MOTION":14.22747118,"ECCENTRICITY":0.00019273,"INCLINATION":98.7244,"RA_OF_ASC_NODE":349.5223,"ARG_OF_PERICENTER":98.2174,"MEAN_ANOMALY":261.9222,"EPHEMERIS_TYPE":0,"CLASSIFICATION_TYPE":"U","NORAD_CAT_ID":61736,"ELEMENT_SET_NO":999,"REV_AT_EPOCH":12339,"BSTAR":4.2576721e-5,"MEAN_MOTION_DOT":5.1e-7,"MEAN_MOTION_DDOT":0}]
