PLEIADES NEO 3          
1 48268U 21034A   26114.63236059  .00000686  00000+0  93708-4 0  9996
2 48268  97.8934 190.1682 0001362 103.4295 256.7070 14.81679396269720
PLEIADES NEO 4          
1 49070U 21073E   26115.61157667 -.00000542  00000+0 -62253-4 0  9991
2 49070  97.8923 191.1293 0001275  93.1075 267.0284 14.81673986253581
LANDSAT 9               
1 49260U 21088A   26115.93927229  .00000338  00000+0  85068-4 0  9992
2 49260  98.1873 186.9435 0001241 105.2488 254.8848 14.57120345243393
CSG-2                   
1 51444U 22008A   26115.96696553  .00000223  00000+0  34599-4 0  9994
2 51444  97.8891 300.3212 0001404  81.9026 278.2346 14.82150844228852
GAOFEN-12 03            
1 52912U 22069A   26115.92632480  .00001048  00000+0  14542-3 0  9998
2 52912  97.8339   5.0993 0001298  47.2506 312.8815 14.79948399206885
SWOT                    
1 54754U 22173A   26115.96958117  .00000021  00000+0  15933-4 0  9998
2 54754  77.6075 105.7992 0000760 154.4576 205.6613 14.00170516171846
GAOFEN-12 04            
1 57654U 23123A   26115.88199118  .00001063  00000+0  14692-3 0  9992
2 57654  97.9132  34.6529 0001275  89.0418 271.0940 14.80124033144899
PARS 1                  
1 59065U 24039Q   26115.92376668  .00012896  00000+0  27857-3 0  9992
2 59065  97.4800  95.2518 0007783 312.9984  47.0611 15.44627974120579
RESURS-P 4              
1 59371U 24061A   26115.94380896  .00003377  00000+0  11239-3 0  9998
2 59371  97.2714  64.7777 0002635  61.0747 299.0759 15.31818285115769
LEGION 1                
1 59625U 24081A   26115.90945778  .00004944  00000+0  25515-3 0  9997
2 59625  97.5023 194.3190 0009752 192.4370 167.6624 15.16753703109618
LEGION 2                
1 59626U 24081B   26115.94308298  .00004825  00000+0  24733-3 0  9991
2 59626  97.5023 194.4412 0011284 165.8231 194.3321 15.16985004109623
ALOS-4 (DAICHI-4)       
1 60182U 24123A   26115.87829536  .00000614  00000+0  89152-4 0  9991
2 60182  97.9206 213.7937 0001662 100.8547 259.2852 14.79465235 98145
LEGION 3                
1 60452U 24146A   26115.93693379  .00005248  00000+0  28467-3 0  9996
2 60452  45.0019 310.6973 0008695 227.5452 132.4692 15.15639488 94091
LEGION 4                
1 60453U 24146B   26115.86990138  .00007422  00000+0  40566-3 0  9992
2 60453  45.0023  42.9110 0010649  20.6648 339.4659 15.14842861 92939
SENTINEL-2C             
1 60989U 24157A   26115.93479504  .00000108  00000+0  57667-4 0  9990
2 60989  98.5633 191.4613 0001478 103.0284 257.1064 14.30816335 85519
IONOSFERA-M 1           
1 61735U 24199A   26115.87111747  .00000048  00000+0  41293-4 0  9992
2 61735  98.7245 349.5771 0000506  19.1151 341.0046 14.22744254120268
IONOSFERA-M 2           
1 61736U 24199B   26115.90553182  .00000051  00000+0  42577-4 0  9990
2 61736  98.7244 349.5223 0001927  98.2174 261.9222 14.22747118123396
